[
    {
        "name": "# S S Chat Network Inc",
        "executive": "Andrew Swan",
        "st_add": "117 Slade St",
        "city": "Belmont, MA",
        "zip_code": "02478",
        "phone": "Not Available"
    },
    {
        "name": "0-Dm-S02-0.Com",
        "executive": " ",
        "st_add": "177 Huntington Ave # 1703",
        "city": "Boston, MA",
        "zip_code": "02115",
        "phone": "Not Available"
    },
    {
        "name": "01908 Inc",
        "executive": "Britte Roossien",
        "st_add": "1 Copper Beech Ln",
        "city": "Nahant, MA",
        "zip_code": "01908",
        "phone": "Not Available"
    },
    {
        "name": "02 Cafe",
        "executive": " ",
        "st_add": "1001 Massachusetts Ave",
        "city": "Cambridge, MA",
        "zip_code": "02138",
        "phone": "(617) 492-2233"
    },
    {
        "name": "02 Yoga Studios LLC",
        "executive": "Mimi Lourerio",
        "st_add": "1001 Massachusetts Ave # 4",
        "city": "Cambridge, MA",
        "zip_code": "02138",
        "phone": "(617) 491-0002"
    },
    {
        "name": "03 Executive Women's Dinner",
        "executive": " ",
        "st_add": "7 Cambridge Ctr",
        "city": "Cambridge, MA",
        "zip_code": "02142",
        "phone": "(617) 682-3703"
    },
    {
        "name": "0south Side Headstart",
        "executive": "Marinella Pinto",
        "st_add": "695 Truman Hwy # 204",
        "city": "Hyde Park, MA",
        "zip_code": "02136",
        "phone": "(617) 333-0518"
    },
    {
        "name": "1 2 3 Grow Child Ctr Inc",
        "executive": "Sandy Welch",
        "st_add": "134 Burncoat St",
        "city": "Worcester, MA",
        "zip_code": "01605",
        "phone": "(508) 853-1096"
    },
    {
        "name": "1 2 3 Grow Child Ctr Inc",
        "executive": "Sandra Welch",
        "st_add": "48 Barre Rd",
        "city": "Hubbardston, MA",
        "zip_code": "01452",
        "phone": "(978) 928-1140"
    },
    {
        "name": "1 2 3 Grow Child Ctr Inc",
        "executive": "Rebecca Fielding",
        "st_add": "341 Elm St",
        "city": "Fitchburg, MA",
        "zip_code": "01420",
        "phone": "(978) 345-1333"
    },
    {
        "name": "1 888 Wedding",
        "executive": " ",
        "st_add": null,
        "city": "Dennis, MA",
        "zip_code": "02638",
        "phone": "(508) 398-5000"
    },
    {
        "name": "1 Berkshire",
        "executive": "Jonathon Butler",
        "st_add": "66 Allen St",
        "city": "Pittsfield, MA",
        "zip_code": "01201",
        "phone": "(413) 743-4500"
    },
    {
        "name": "1 Beyond",
        "executive": "Terry Cullen",
        "st_add": "529 Main St # 109",
        "city": "Charlestown, MA",
        "zip_code": "02129",
        "phone": "(617) 591-2200"
    },
    {
        "name": "1 Beyond Inc",
        "executive": " ",
        "st_add": "61 Medford St # 3",
        "city": "Somerville, MA",
        "zip_code": "02143",
        "phone": "(617) 591-2200"
    },
    {
        "name": "1 Call Does It All",
        "executive": " ",
        "st_add": "85 State Road",
        "city": "Whately, MA",
        "zip_code": "01093",
        "phone": "(413) 584-5381"
    },
    {
        "name": "1 Day Bath",
        "executive": " ",
        "st_add": "14 Tyler St # N",
        "city": "Somerville, MA",
        "zip_code": "02143",
        "phone": "(617) 440-7221"
    },
    {
        "name": "1 Hommagen Boiler",
        "executive": " ",
        "st_add": "1 Hommagen Ct",
        "city": "Roxbury, MA",
        "zip_code": "02119",
        "phone": "(617) 445-0001"
    },
    {
        "name": "1 Hour Couture Tailors",
        "executive": " ",
        "st_add": "779 Chief Justice Cushing Hwy",
        "city": "Cohasset, MA",
        "zip_code": "02025",
        "phone": "(781) 923-1692"
    },
    {
        "name": "1 Hour Envy Tailors",
        "executive": "S Salnye",
        "st_add": "9 N Main St",
        "city": "West Bridgewater, MA",
        "zip_code": "02379",
        "phone": "(508) 897-0100"
    },
    {
        "name": "1 Luther Inc",
        "executive": "Jason Lice",
        "st_add": "25 Bickford Dr",
        "city": "Athol, MA",
        "zip_code": "01331",
        "phone": "(978) 249-4035"
    },
    {
        "name": "1 Nail",
        "executive": "Mins Lai",
        "st_add": "97 Main St",
        "city": "Peabody, MA",
        "zip_code": "01960",
        "phone": "(978) 532-3007"
    },
    {
        "name": "1 Of A Kind Graphics",
        "executive": "Cathleen Sullivan",
        "st_add": "200 Wales St",
        "city": "Abington, MA",
        "zip_code": "02351",
        "phone": "(781) 982-2900"
    },
    {
        "name": "1 On 1 Self Indulgence",
        "executive": "Cindy Mc Culloughall",
        "st_add": "457 Great Rd",
        "city": "Acton, MA",
        "zip_code": "01720",
        "phone": "(978) 266-1800"
    },
    {
        "name": "1 Point Networks",
        "executive": "Justin Weekley",
        "st_add": "146 Lowell St # 203",
        "city": "Wakefield, MA",
        "zip_code": "01880",
        "phone": "(781) 245-2095"
    },
    {
        "name": "1 Point Networks",
        "executive": " ",
        "st_add": "15 Lincoln St # 336",
        "city": "Wakefield, MA",
        "zip_code": "01880",
        "phone": "(781) 683-0700"
    },
    {
        "name": "1 Quik Stop",
        "executive": "Sunny Patel",
        "st_add": "206 N Main St",
        "city": "Whitinsville, MA",
        "zip_code": "01588",
        "phone": "(508) 234-7913"
    },
    {
        "name": "1 Stop Realty",
        "executive": " ",
        "st_add": "21 Torrey St",
        "city": "Brockton, MA",
        "zip_code": "02301",
        "phone": "(774) 223-5561"
    },
    {
        "name": "1 To 1 Personal Ftnss Training",
        "executive": " ",
        "st_add": null,
        "city": "Dedham, MA",
        "zip_code": "02026",
        "phone": "(617) 365-6191"
    },
    {
        "name": "1 Upland",
        "executive": " ",
        "st_add": "1 Upland Woods Cir",
        "city": "Norwood, MA",
        "zip_code": "02062",
        "phone": "(781) 551-5991"
    },
    {
        "name": "1 Virtual Assistant",
        "executive": " ",
        "st_add": "7 Saint Elmo Rd",
        "city": "Worcester, MA",
        "zip_code": "01602",
        "phone": "(774) 415-4311"
    },
    {
        "name": "1 Washington Avenue Corp",
        "executive": " ",
        "st_add": "260 Franklin St # 1860",
        "city": "Boston, MA",
        "zip_code": "02110",
        "phone": "Not Available"
    },
    {
        "name": "1-800-Got-Junk?",
        "executive": " ",
        "st_add": "210 Kuniholm Dr # At",
        "city": "Holliston, MA",
        "zip_code": "01746",
        "phone": "(774) 854-7179"
    },
    {
        "name": "1-800-Got-Junk? Boston Central",
        "executive": "James Walsh",
        "st_add": "50 Terminal St # 2-715",
        "city": "Charlestown, MA",
        "zip_code": "02129",
        "phone": "(800) 468-5865"
    },
    {
        "name": "1-800-Got-Junk? Boston North",
        "executive": "Bob Valeri",
        "st_add": "5 Walnut Hill Park # 1",
        "city": "Woburn, MA",
        "zip_code": "01801",
        "phone": "(781) 497-5191"
    },
    {
        "name": "1-800-Got-Junk? Boston South",
        "executive": "Dina Walsh",
        "st_add": "14 Roberts Rd # 2",
        "city": "Plymouth, MA",
        "zip_code": "02360",
        "phone": "(508) 591-8202"
    },
    {
        "name": "1-800-Got-Junk? Boston West",
        "executive": "Patrick Murphy",
        "st_add": "25 Brigham St",
        "city": "Westborough, MA",
        "zip_code": "01581",
        "phone": "(508) 321-1036"
    },
    {
        "name": "1-800-Got-Junk? Boston West",
        "executive": "Judy Briggs",
        "st_add": "161 Kuniholm Dr # 5",
        "city": "Holliston, MA",
        "zip_code": "01746",
        "phone": "(774) 233-0380"
    },
    {
        "name": "1-800-Got-Junk? Boston West",
        "executive": " ",
        "st_add": "100 South St",
        "city": "Hopkinton, MA",
        "zip_code": "01748",
        "phone": "(508) 625-2686"
    },
    {
        "name": "1-800-Pavement",
        "executive": "Margaret F Musto",
        "st_add": "9 Bartlet St # 250",
        "city": "Andover, MA",
        "zip_code": "01810",
        "phone": "(781) 858-1788"
    },
    {
        "name": "1-800-Radiator & A/C",
        "executive": "Ron Haska",
        "st_add": "4d Gill St",
        "city": "Woburn, MA",
        "zip_code": "01801",
        "phone": "(781) 376-0284"
    },
    {
        "name": "1-800-Radiator & A/C",
        "executive": "John White",
        "st_add": "51 Morgan Dr # 5",
        "city": "Norwood, MA",
        "zip_code": "02062",
        "phone": "(781) 762-3420"
    },
    {
        "name": "1-800-Radiator & A/C",
        "executive": "Ron Haska",
        "st_add": "65 Avco Rd",
        "city": "Haverhill, MA",
        "zip_code": "01835",
        "phone": "(978) 372-3827"
    },
    {
        "name": "1-800-Radiator & A/C",
        "executive": "Justin Cronin",
        "st_add": "344 Franklin St",
        "city": "Worcester, MA",
        "zip_code": "01604",
        "phone": "(508) 798-7026"
    },
    {
        "name": "1-800-Radiator & A/C",
        "executive": "Dave Ritchotte",
        "st_add": "28 Cushing Ln",
        "city": "Acushnet, MA",
        "zip_code": "02743",
        "phone": "(508) 979-1905"
    },
    {
        "name": "1-877-Lawn-Crew",
        "executive": " ",
        "st_add": "241 Mattakeesett St",
        "city": "Pembroke, MA",
        "zip_code": "02359",
        "phone": "(781) 760-5819"
    },
    {
        "name": "1-877-Lawn-Crew",
        "executive": " ",
        "st_add": "204 Main St",
        "city": "Hanson, MA",
        "zip_code": "02341",
        "phone": "(781) 760-5819"
    },
    {
        "name": "1-Stop Design Shop Inc",
        "executive": "Christine Henningen",
        "st_add": "30bb 6th Rd",
        "city": "Woburn, MA",
        "zip_code": "01801",
        "phone": "(781) 938-3866"
    },
    {
        "name": "1-Stop Property Shop",
        "executive": "Gary P Luksha",
        "st_add": "35 E Main St",
        "city": "Webster, MA",
        "zip_code": "01570",
        "phone": "(508) 949-1100"
    },
    {
        "name": "10 Commercial Ave LLC",
        "executive": "Kevin W Mcdonough",
        "st_add": "10 Commercial Ave",
        "city": "Bedford, MA",
        "zip_code": "01730",
        "phone": "Not Available"
    },
    {
        "name": "10 East Belcher Road",
        "executive": " ",
        "st_add": "231 Sandwich Rd",
        "city": "Buzzards Bay, MA",
        "zip_code": "02532",
        "phone": "(508) 415-9018"
    }
]